{
  "type": "FeatureCollection",
  "features": [
    {
      "type": "Feature",
      "properties": {
        "norad_id": 66807,
        "name": "STARLINK-36000",
        "group": "last-30-days",
        "lat": -30.922267510750522,
        "lon": 40.71327187543898,
        "alt_km": 416.82607526385164,
        "timestamp": "2025-12-24T14:43:27.721051+00:00",
        "meta_object_name": "STARLINK-36000",
        "meta_object_id": "2025-278S",
        "meta_epoch": "2025-12-24T08:00:03.000384",
        "meta_mean_motion": 15.50589266,
        "meta_eccentricity": 0.00018835,
        "meta_inclination": 43.0002,
        "meta_ra_of_asc_node": 182.3498,
        "meta_arg_of_pericenter": 262.6552,
        "meta_mean_anomaly": 200.5437,
        "meta_ephemeris_type": 0,
        "meta_classification_type": "U",
        "meta_norad_cat_id": 66807,
        "meta_element_set_no": 999,
        "meta_rev_at_epoch": 488,
        "meta_bstar": -0.0010966146,
        "meta_mean_motion_dot": -0.00064176,
        "meta_mean_motion_ddot": 0,
        "tle_line1": "1 66807U 25278S   25358.33336806 -.00064176  00000+0 -10966-2 0  9995",
        "tle_line2": "2 66807  43.0002 182.3498 0001883 262.6552 200.5437 15.50589266  4889"
      },
      "geometry": {
        "type": "Point",
        "coordinates": [
          40.71327187543898,
          -30.922267510750522
        ]
      }
    },
    {
      "type": "Feature",
      "properties": {
        "norad_id": 66808,
        "name": "STARLINK-36071",
        "group": "last-30-days",
        "lat": -31.907741653167996,
        "lon": 42.6317731636128,
        "alt_km": 416.98044048214433,
        "timestamp": "2025-12-24T14:43:27.721063+00:00",
        "meta_object_name": "STARLINK-36071",
        "meta_object_id": "2025-278T",
        "meta_epoch": "2025-12-24T08:00:03.000384",
        "meta_mean_motion": 15.50593296,
        "meta_eccentricity": 0.00017309,
        "meta_inclination": 43.0002,
        "meta_ra_of_asc_node": 182.3452,
        "meta_arg_of_pericenter": 265.5627,
        "meta_mean_anomaly": 199.5496,
        "meta_ephemeris_type": 0,
        "meta_classification_type": "U",
        "meta_norad_cat_id": 66808,
        "meta_element_set_no": 999,
        "meta_rev_at_epoch": 482,
        "meta_bstar": -0.0011987994,
        "meta_mean_motion_dot": -0.0007008,
        "meta_mean_motion_ddot": 0,
        "tle_line1": "1 66808U 25278T   25358.33336806 -.00070080  00000+0 -11988-2 0  9992",
        "tle_line2": "2 66808  43.0002 182.3452 0001730 265.5627 199.5496 15.50593296  4820"
      },
      "geometry": {
        "type": "Point",
        "coordinates": [
          42.6317731636128,
          -31.907741653167996
        ]
      }
    },
    {
      "type": "Feature",
      "properties": {
        "norad_id": 66809,
        "name": "STARLINK-35979",
        "group": "last-30-days",
        "lat": -34.67866123158488,
        "lon": 48.63366005556488,
        "alt_km": 416.7846293214752,
        "timestamp": "2025-12-24T14:43:27.721076+00:00",
        "meta_object_name": "STARLINK-35979",
        "meta_object_id": "2025-278U",
        "meta_epoch": "2025-12-24T08:00:03.000384",
        "meta_mean_motion": 15.50580152,
        "meta_eccentricity": 0.00021905,
        "meta_inclination": 43.0002,
        "meta_ra_of_asc_node": 182.3297,
        "meta_arg_of_pericenter": 263.8039,
        "meta_mean_anomaly": 207.0635,
        "meta_ephemeris_type": 0,
        "meta_classification_type": "U",
        "meta_norad_cat_id": 66809,
        "meta_element_set_no": 999,
        "meta_rev_at_epoch": 482,
        "meta_bstar": -0.00079921281,
        "meta_mean_motion_dot": -0.00046953,
        "meta_mean_motion_ddot": 0,
        "tle_line1": "1 66809U 25278U   25358.33336806 -.00046953  00000+0 -79921-3 0  9997",
        "tle_line2": "2 66809  43.0002 182.3297 0002190 263.8039 207.0635 15.50580152  4824"
      },
      "geometry": {
        "type": "Point",
        "coordinates": [
          48.63366005556488,
          -34.67866123158488
        ]
      }
    },
    {
      "type": "Feature",
      "properties": {
        "norad_id": 66810,
        "name": "STARLINK-36046",
        "group": "last-30-days",
        "lat": -32.86272025145683,
        "lon": 44.589461739382095,
        "alt_km": 416.9696550210947,
        "timestamp": "2025-12-24T14:43:27.721086+00:00",
        "meta_object_name": "STARLINK-36046",
        "meta_object_id": "2025-278V",
        "meta_epoch": "2025-12-24T08:00:03.000384",
        "meta_mean_motion": 15.50582154,
        "meta_eccentricity": 0.0001697,
        "meta_inclination": 43.0002,
        "meta_ra_of_asc_node": 182.3407,
        "meta_arg_of_pericenter": 260.1856,
        "meta_mean_anomaly": 206.8435,
        "meta_ephemeris_type": 0,
        "meta_classification_type": "U",
        "meta_norad_cat_id": 66810,
        "meta_element_set_no": 999,
        "meta_rev_at_epoch": 459,
        "meta_bstar": -0.00078275295,
        "meta_mean_motion_dot": -0.00045999,
        "meta_mean_motion_ddot": 0,
        "tle_line1": "1 66810U 25278V   25358.33336806 -.00045999  00000+0 -78275-3 0  9999",
        "tle_line2": "2 66810  43.0002 182.3407 0001697 260.1856 206.8435 15.50582154  4590"
      },
      "geometry": {
        "type": "Point",
        "coordinates": [
          44.589461739382095,
          -32.86272025145683
        ]
      }
    },
    {
      "type": "Feature",
      "properties": {
        "norad_id": 66811,
        "name": "STARLINK-36045",
        "group": "last-30-days",
        "lat": -33.78896374975449,
        "lon": 46.59393811333233,
        "alt_km": 416.8607237362612,
        "timestamp": "2025-12-24T14:43:27.721096+00:00",
        "meta_object_name": "STARLINK-36045",
        "meta_object_id": "2025-278W",
        "meta_epoch": "2025-12-24T08:00:03.000384",
        "meta_mean_motion": 15.50584536,
        "meta_eccentricity": 0.00019034,
        "meta_inclination": 43.0002,
        "meta_ra_of_asc_node": 182.3353,
        "meta_arg_of_pericenter": 257.4514,
        "meta_mean_anomaly": 211.4978,
        "meta_ephemeris_type": 0,
        "meta_classification_type": "U",
        "meta_norad_cat_id": 66811,
        "meta_element_set_no": 999,
        "meta_rev_at_epoch": 482,
        "meta_bstar": -0.00094847922,
        "meta_mean_motion_dot": -0.00055604,
        "meta_mean_motion_ddot": 0,
        "tle_line1": "1 66811U 25278W   25358.33336806 -.00055604  00000+0 -94848-3 0  9998",
        "tle_line2": "2 66811  43.0002 182.3353 0001903 257.4514 211.4978 15.50584536  4827"
      },
      "geometry": {
        "type": "Point",
        "coordinates": [
          46.59393811333233,
          -33.78896374975449
        ]
      }
    },
    {
      "type": "Feature",
      "properties": {
        "norad_id": 66812,
        "name": "STARLINK-36054",
        "group": "last-30-days",
        "lat": -35.537968520097316,
        "lon": 50.729781731765236,
        "alt_km": 417.1048539810763,
        "timestamp": "2025-12-24T14:43:27.721106+00:00",
        "meta_object_name": "STARLINK-36054",
        "meta_object_id": "2025-278X",
        "meta_epoch": "2025-12-24T08:00:03.000384",
        "meta_mean_motion": 15.50579546,
        "meta_eccentricity": 0.0001749,
        "meta_inclination": 43.0002,
        "meta_ra_of_asc_node": 182.3256,
        "meta_arg_of_pericenter": 266.3486,
        "meta_mean_anomaly": 206.4414,
        "meta_ephemeris_type": 0,
        "meta_classification_type": "U",
        "meta_norad_cat_id": 66812,
        "meta_element_set_no": 999,
        "meta_rev_at_epoch": 482,
        "meta_bstar": -0.00084606768,
        "meta_mean_motion_dot": -0.00049665,
        "meta_mean_motion_ddot": 0,
        "tle_line1": "1 66812U 25278X   25358.33336806 -.00049665  00000+0 -84607-3 0  9991",
        "tle_line2": "2 66812  43.0002 182.3256 0001749 266.3486 206.4414 15.50579546  4829"
      },
      "geometry": {
        "type": "Point",
        "coordinates": [
          50.729781731765236,
          -35.537968520097316
        ]
      }
    },
    {
      "type": "Feature",
      "properties": {
        "norad_id": 66813,
        "name": "STARLINK-36042",
        "group": "last-30-days",
        "lat": -36.35497441767065,
        "lon": 52.85527224360911,
        "alt_km": 417.1400441757187,
        "timestamp": "2025-12-24T14:43:27.721117+00:00",
        "meta_object_name": "STARLINK-36042",
        "meta_object_id": "2025-278Y",
        "meta_epoch": "2025-12-24T08:00:03.000384",
        "meta_mean_motion": 15.50585125,
        "meta_eccentricity": 0.00017774,
        "meta_inclination": 43.0002,
        "meta_ra_of_asc_node": 182.3202,
        "meta_arg_of_pericenter": 270.3336,
        "meta_mean_anomaly": 204.3634,
        "meta_ephemeris_type": 0,
        "meta_classification_type": "U",
        "meta_norad_cat_id": 66813,
        "meta_element_set_no": 999,
        "meta_rev_at_epoch": 482,
        "meta_bstar": -0.00087903965,
        "meta_mean_motion_dot": -0.00051585,
        "meta_mean_motion_ddot": 0,
        "tle_line1": "1 66813U 25278Y   25358.33336806 -.00051585  00000+0 -87904-3 0  9999",
        "tle_line2": "2 66813  43.0002 182.3202 0001777 270.3336 204.3634 15.50585125  4822"
      },
      "geometry": {
        "type": "Point",
        "coordinates": [
          52.85527224360911,
          -36.35497441767065
        ]
      }
    }
  ]
}